{
  "type": "FeatureCollection",
  "features": [
    {
      "type": "Feature",
      "properties": {
        "norad_id": 34765,
        "name": "IRIDIUM 33 DEB",
        "group": "iridium-33-debris",
        "lat": 30.657462905716592,
        "lon": -150.35816239107606,
        "alt_km": 748.9320706085209,
        "timestamp": "2025-12-14T22:38:41.142561+00:00",
        "meta_object_name": "IRIDIUM 33 DEB",
        "meta_object_id": "1997-051LJ",
        "meta_epoch": "2025-12-14T03:54:12.794976",
        "meta_mean_motion": 14.4047032,
        "meta_eccentricity": 0.00155921,
        "meta_inclination": 86.3397,
        "meta_ra_of_asc_node": 32.1513,
        "meta_arg_of_pericenter": 206.4043,
        "meta_mean_anomaly": 216.0627,
        "meta_ephemeris_type": 0,
        "meta_classification_type": "U",
        "meta_norad_cat_id": 34765,
        "meta_element_set_no": 999,
        "meta_rev_at_epoch": 87634,
        "meta_bstar": 0.00050106908,
        "meta_mean_motion_dot": 1.614e-05,
        "meta_mean_motion_ddot": 0,
        "tle_line1": "1 34765U 97051LJ  25348.16264809  .00001614  00000+0  50107-3 0  9992",
        "tle_line2": "2 34765  86.3397  32.1513 0015592 206.4043 216.0627 14.40470320876346"
      },
      "geometry": {
        "type": "Point",
        "coordinates": [
          -150.35816239107606,
          30.657462905716592
        ]
      }
    },
    {
      "type": "Feature",
      "properties": {
        "norad_id": 34833,
        "name": "IRIDIUM 33 DEB",
        "group": "iridium-33-debris",
        "lat": -11.087938591601036,
        "lon": 49.33535085156093,
        "alt_km": 725.5493176522741,
        "timestamp": "2025-12-14T22:38:41.142571+00:00",
        "meta_object_name": "IRIDIUM 33 DEB",
        "meta_object_id": "1997-051MH",
        "meta_epoch": "2025-12-14T04:45:15.078816",
        "meta_mean_motion": 14.5239107,
        "meta_eccentricity": 0.00217354,
        "meta_inclination": 86.3931,
        "meta_ra_of_asc_node": 50.3648,
        "meta_arg_of_pericenter": 94.0496,
        "meta_mean_anomaly": 320.0854,
        "meta_ephemeris_type": 0,
        "meta_classification_type": "U",
        "meta_norad_cat_id": 34833,
        "meta_element_set_no": 999,
        "meta_rev_at_epoch": 87736,
        "meta_bstar": 0.00088730228,
        "meta_mean_motion_dot": 3.644e-05,
        "meta_mean_motion_ddot": 0,
        "tle_line1": "1 34833U 97051MH  25348.19809119  .00003644  00000+0  88730-3 0  9998",
        "tle_line2": "2 34833  86.3931  50.3648 0021735  94.0496 320.0854 14.52391070877364"
      },
      "geometry": {
        "type": "Point",
        "coordinates": [
          49.33535085156093,
          -11.087938591601036
        ]
      }
    },
    {
      "type": "Feature",
      "properties": {
        "norad_id": 34870,
        "name": "IRIDIUM 33 DEB",
        "group": "iridium-33-debris",
        "lat": 27.881073978486736,
        "lon": 131.11816178650054,
        "alt_km": 628.7703874048029,
        "timestamp": "2025-12-14T22:38:41.142581+00:00",
        "meta_object_name": "IRIDIUM 33 DEB",
        "meta_object_id": "1997-051MQ",
        "meta_epoch": "2025-12-13T15:51:00.242208",
        "meta_mean_motion": 14.76459498,
        "meta_eccentricity": 0.00163253,
        "meta_inclination": 86.31,
        "meta_ra_of_asc_node": 313.6624,
        "meta_arg_of_pericenter": 179.046,
        "meta_mean_anomaly": 357.3162,
        "meta_ephemeris_type": 0,
        "meta_classification_type": "U",
        "meta_norad_cat_id": 34870,
        "meta_element_set_no": 999,
        "meta_rev_at_epoch": 88924,
        "meta_bstar": 0.0017247419,
        "meta_mean_motion_dot": 0.00012059,
        "meta_mean_motion_ddot": 0,
        "tle_line1": "1 34870U 97051MQ  25347.66041947  .00012059  00000+0  17247-2 0  9991",
        "tle_line2": "2 34870  86.3100 313.6624 0016325 179.0460 357.3162 14.76459498889246"
      },
      "geometry": {
        "type": "Point",
        "coordinates": [
          131.11816178650054,
          27.881073978486736
        ]
      }
    },
    {
      "type": "Feature",
      "properties": {
        "norad_id": 34896,
        "name": "IRIDIUM 33 DEB",
        "group": "iridium-33-debris",
        "lat": -85.35278525892656,
        "lon": -86.47682518054805,
        "alt_km": 673.402401974241,
        "timestamp": "2025-12-14T22:38:41.142591+00:00",
        "meta_object_name": "IRIDIUM 33 DEB",
        "meta_object_id": "1997-051MY",
        "meta_epoch": "2025-12-14T05:05:50.525376",
        "meta_mean_motion": 14.66300164,
        "meta_eccentricity": 0.00244756,
        "meta_inclination": 86.3287,
        "meta_ra_of_asc_node": 326.0246,
        "meta_arg_of_pericenter": 208.9085,
        "meta_mean_anomaly": 166.7259,
        "meta_ephemeris_type": 0,
        "meta_classification_type": "U",
        "meta_norad_cat_id": 34896,
        "meta_element_set_no": 999,
        "meta_rev_at_epoch": 87641,
        "meta_bstar": 0.0011083556,
        "meta_mean_motion_dot": 6.162e-05,
        "meta_mean_motion_ddot": 0,
        "tle_line1": "1 34896U 97051MY  25348.21239034  .00006162  00000+0  11084-2 0  9998",
        "tle_line2": "2 34896  86.3287 326.0246 0024475 208.9085 166.7259 14.66300164876416"
      },
      "geometry": {
        "type": "Point",
        "coordinates": [
          -86.47682518054805,
          -85.35278525892656
        ]
      }
    },
    {
      "type": "Feature",
      "properties": {
        "norad_id": 34926,
        "name": "IRIDIUM 33 DEB",
        "group": "iridium-33-debris",
        "lat": -83.94563286742046,
        "lon": -133.1289783242101,
        "alt_km": 667.9732911693063,
        "timestamp": "2025-12-14T22:38:41.142601+00:00",
        "meta_object_name": "IRIDIUM 33 DEB",
        "meta_object_id": "1997-051NF",
        "meta_epoch": "2025-12-14T01:51:40.129056",
        "meta_mean_motion": 14.54500914,
        "meta_eccentricity": 0.00755735,
        "meta_inclination": 86.1333,
        "meta_ra_of_asc_node": 7.654,
        "meta_arg_of_pericenter": 288.4035,
        "meta_mean_anomaly": 125.6013,
        "meta_ephemeris_type": 0,
        "meta_classification_type": "U",
        "meta_norad_cat_id": 34926,
        "meta_element_set_no": 999,
        "meta_rev_at_epoch": 86476,
        "meta_bstar": 0.0053943711,
        "meta_mean_motion_dot": 0.00023949,
        "meta_mean_motion_ddot": 0,
        "tle_line1": "1 34926U 97051NF  25348.07754779  .00023949  00000+0  53944-2 0  9997",
        "tle_line2": "2 34926  86.1333   7.6540 0075573 288.4035 125.6013 14.54500914864761"
      },
      "geometry": {
        "type": "Point",
        "coordinates": [
          -133.1289783242101,
          -83.94563286742046
        ]
      }
    },
    {
      "type": "Feature",
      "properties": {
        "norad_id": 34985,
        "name": "IRIDIUM 33 DEB",
        "group": "iridium-33-debris",
        "lat": -67.69647911979837,
        "lon": 47.036703442861366,
        "alt_km": 756.5087003057006,
        "timestamp": "2025-12-14T22:38:41.142611+00:00",
        "meta_object_name": "IRIDIUM 33 DEB",
        "meta_object_id": "1997-051NR",
        "meta_epoch": "2025-12-14T04:53:38.247360",
        "meta_mean_motion": 14.42019267,
        "meta_eccentricity": 0.00208706,
        "meta_inclination": 86.37,
        "meta_ra_of_asc_node": 56.2548,
        "meta_arg_of_pericenter": 214.6902,
        "meta_mean_anomaly": 200.0327,
        "meta_ephemeris_type": 0,
        "meta_classification_type": "U",
        "meta_norad_cat_id": 34985,
        "meta_element_set_no": 999,
        "meta_rev_at_epoch": 87196,
        "meta_bstar": 0.00078314681,
        "meta_mean_motion_dot": 2.594e-05,
        "meta_mean_motion_ddot": 0,
        "tle_line1": "1 34985U 97051NR  25348.20391490  .00002594  00000+0  78315-3 0  9997",
        "tle_line2": "2 34985  86.3700  56.2548 0020870 214.6902 200.0327 14.42019267871967"
      },
      "geometry": {
        "type": "Point",
        "coordinates": [
          47.036703442861366,
          -67.69647911979837
        ]
      }
    },
    {
      "type": "Feature",
      "properties": {
        "norad_id": 35051,
        "name": "IRIDIUM 33 DEB",
        "group": "iridium-33-debris",
        "lat": -86.14914136043447,
        "lon": -99.34998367554348,
        "alt_km": 748.443842392172,
        "timestamp": "2025-12-14T22:38:41.142622+00:00",
        "meta_object_name": "IRIDIUM 33 DEB",
        "meta_object_id": "1997-051NX",
        "meta_epoch": "2025-12-11T08:47:57.045408",
        "meta_mean_motion": 14.47588957,
        "meta_eccentricity": 0.00106566,
        "meta_inclination": 86.3243,
        "meta_ra_of_asc_node": 9.4603,
        "meta_arg_of_pericenter": 94.8899,
        "meta_mean_anomaly": 265.3522,
        "meta_ephemeris_type": 0,
        "meta_classification_type": "U",
        "meta_norad_cat_id": 35051,
        "meta_element_set_no": 999,
        "meta_rev_at_epoch": 86976,
        "meta_bstar": 0.001042299,
        "meta_mean_motion_dot": 3.858e-05,
        "meta_mean_motion_ddot": 0,
        "tle_line1": "1 35051U 97051NX  25345.36663247  .00003858  00000+0  10423-2 0  9997",
        "tle_line2": "2 35051  86.3243   9.4603 0010656  94.8899 265.3522 14.47588957869768"
      },
      "geometry": {
        "type": "Point",
        "coordinates": [
          -99.34998367554348,
          -86.14914136043447
        ]
      }
    }
  ]
}